start=new Date('2021-11-03T00:00:00.000Z').valueOf();
sats=[{"APOAPSIS":"512.467","NORAD_CAT_ID":"44238","DECAY_DATE":null,"RA_OF_ASC_NODE":"77.0879","RCS_SIZE":"LARGE","ARG_OF_PERICENTER":"94.4408","REF_FRAME":"TEME","MEAN_MOTION":"15.18038154","SEMIMAJOR_AXIS":"6889.907","ELEMENT_SET_NO":"999","ECCENTRICITY":"0.00010080","PERIAPSIS":"511.078","MEAN_ANOMALY":"265.6701","MEAN_ELEMENT_THEORY":"SGP4","TLE_LINE2":"2 44238  52.9933  77.0879 0001008  94.4408 265.6701 15.18038154133651","MEAN_MOTION_DDOT":"0.0000000000000","LAUNCH_DATE":"2019-05-24","EPOCH":"2021-11-02T15:06:47.766528","TIME_SYSTEM":"UTC","OBJECT_TYPE":"PAYLOAD","TLE_LINE1":"1 44238U 19029D   21306.62971952  .00021328  00000-0  10473-2 0  9998","SITE":"AFETR","FILE":"3198350","REV_AT_EPOCH":"13365","CENTER_NAME":"EARTH","GP_ID":"188772000","COUNTRY_CODE":"US","MEAN_MOTION_DOT":"0.00021328","INCLINATION":"52.9933","EPHEMERIS_TYPE":"0","OBJECT_NAME":"STARLINK-24","OBJECT_ID":"2019-029D","PERIOD":"94.859","BSTAR":"0.00104730000000","CLASSIFICATION_TYPE":"U"},{"TLE_LINE1":"1 44249U 19029Q   21306.00412530  .00025696  00000-0  10659-2 0  9992","OBJECT_TYPE":"PAYLOAD","TIME_SYSTEM":"UTC","EPOCH":"2021-11-02T00:05:56.425920","TLE_LINE2":"2 44249  52.9836  49.1547 0006319 128.7705 231.3856 15.23710381134688","MEAN_MOTION_DDOT":"0.0000000000000","MEAN_ELEMENT_THEORY":"SGP4","MEAN_ANOMALY":"231.3856","LAUNCH_DATE":"2019-05-24","ECCENTRICITY":"0.00063190","SEMIMAJOR_AXIS":"6872.798","ELEMENT_SET_NO":"999","PERIAPSIS":"490.320","MEAN_MOTION":"15.23710381","RCS_SIZE":"LARGE","RA_OF_ASC_NODE":"49.1547","ARG_OF_PERICENTER":"128.7705","REF_FRAME":"TEME","DECAY_DATE":null,"APOAPSIS":"499.006","NORAD_CAT_ID":"44249","CLASSIFICATION_TYPE":"U","PERIOD":"94.506","BSTAR":"0.00106590000000","INCLINATION":"52.9836","MEAN_MOTION_DOT":"0.00025696","OBJECT_ID":"2019-029Q","OBJECT_NAME":"STARLINK-61","EPHEMERIS_TYPE":"0","COUNTRY_CODE":"US","GP_ID":"188735531","FILE":"3197731","CENTER_NAME":"EARTH","REV_AT_EPOCH":"13468","SITE":"AFETR"},{"SITE":"AFETR","REV_AT_EPOCH":"13527","CENTER_NAME":"EARTH","FILE":"3198249","GP_ID":"188751283","COUNTRY_CODE":"US","EPHEMERIS_TYPE":"0","OBJECT_ID":"2019-029T","OBJECT_NAME":"STARLINK-71","MEAN_MOTION_DOT":"0.00026278","INCLINATION":"52.9963","BSTAR":"0.00120520000000","PERIOD":"94.719","CLASSIFICATION_TYPE":"U","NORAD_CAT_ID":"44252","APOAPSIS":"505.208","DECAY_DATE":null,"REF_FRAME":"TEME","ARG_OF_PERICENTER":"86.3411","RA_OF_ASC_NODE":"78.1352","RCS_SIZE":"LARGE","MEAN_MOTION":"15.20286192","PERIAPSIS":"504.749","SEMIMAJOR_AXIS":"6883.114","ELEMENT_SET_NO":"999","ECCENTRICITY":"0.00003330","LAUNCH_DATE":"2019-05-24","MEAN_ANOMALY":"273.7621","MEAN_ELEMENT_THEORY":"SGP4","MEAN_MOTION_DDOT":"0.0000000000000","TLE_LINE2":"2 44252  52.9963  78.1352 0000333  86.3411 273.7621 15.20286192135273","EPOCH":"2021-11-02T08:21:51.606144","OBJECT_TYPE":"PAYLOAD","TIME_SYSTEM":"UTC","TLE_LINE1":"1 44252U 19029T   21306.34851396  .00026278  00000-0  12052-2 0  9996"},{"RA_OF_ASC_NODE":"299.1669","RCS_SIZE":"LARGE","ARG_OF_PERICENTER":"64.9221","REF_FRAME":"TEME","MEAN_MOTION":"15.56533754","APOAPSIS":"402.129","NORAD_CAT_ID":"44257","DECAY_DATE":null,"OBJECT_TYPE":"PAYLOAD","TIME_SYSTEM":"UTC","EPOCH":"2021-11-02T06:32:41.831232","TLE_LINE1":"1 44257U 19029Y   21306.27270638  .00166831  00000-0  22667-2 0  9990","ECCENTRICITY":"0.00065360","SEMIMAJOR_AXIS":"6775.835","ELEMENT_SET_NO":"999","PERIAPSIS":"393.271","TLE_LINE2":"2 44257  52.9945 299.1669 0006536  64.9221 295.2467 15.56533754136373","MEAN_MOTION_DDOT":"0.0000000000000","MEAN_ELEMENT_THEORY":"SGP4","MEAN_ANOMALY":"295.2467","LAUNCH_DATE":"2019-05-24","GP_ID":"188737024","SITE":"AFETR","FILE":"3197731","REV_AT_EPOCH":"13637","CENTER_NAME":"EARTH","PERIOD":"92.513","BSTAR":"0.00226670000000","CLASSIFICATION_TYPE":"U","COUNTRY_CODE":"US","MEAN_MOTION_DOT":"0.00166831","INCLINATION":"52.9945","OBJECT_ID":"2019-029Y","OBJECT_NAME":"STARLINK-43","EPHEMERIS_TYPE":"0"},{"COUNTRY_CODE":"US","INCLINATION":"53.0192","MEAN_MOTION_DOT":"0.00041279","OBJECT_NAME":"STARLINK-80","OBJECT_ID":"2019-029AZ","EPHEMERIS_TYPE":"0","PERIOD":"93.708","BSTAR":"0.00113930000000","CLASSIFICATION_TYPE":"U","SITE":"AFETR","FILE":"3197731","CENTER_NAME":"EARTH","REV_AT_EPOCH":"13500","GP_ID":"188735784","SEMIMAJOR_AXIS":"6834.045","ELEMENT_SET_NO":"999","ECCENTRICITY":"0.00052000","PERIAPSIS":"452.356","MEAN_MOTION_DDOT":"0.0000000000000","TLE_LINE2":"2 44282  53.0192 351.8381 0005200  18.4062 341.7127 15.36689195135006","MEAN_ANOMALY":"341.7127","MEAN_ELEMENT_THEORY":"SGP4","LAUNCH_DATE":"2019-05-24","OBJECT_TYPE":"PAYLOAD","TIME_SYSTEM":"UTC","EPOCH":"2021-11-02T10:03:59.684256","TLE_LINE1":"1 44282U 19029AZ  21306.41944079  .00041279  00000-0  11393-2 0  9993","APOAPSIS":"459.463","NORAD_CAT_ID":"44282","DECAY_DATE":null,"RA_OF_ASC_NODE":"351.8381","RCS_SIZE":"LARGE","ARG_OF_PERICENTER":"18.4062","REF_FRAME":"TEME","MEAN_MOTION":"15.36689195"},{"CLASSIFICATION_TYPE":"U","PERIOD":"95.592","BSTAR":"-0.00000740050000","INCLINATION":"53.0517","MEAN_MOTION_DOT":"-0.00000392","OBJECT_NAME":"STARLINK-1007","OBJECT_ID":"2019-074A","EPHEMERIS_TYPE":"0","COUNTRY_CODE":"US","GP_ID":"188773042","FILE":"3198350","REV_AT_EPOCH":"10937","CENTER_NAME":"EARTH","SITE":"AFETR","TLE_LINE1":"1 44713U 19074A   21306.51385281 -.00000392  00000-0 -74005-5 0  9992","OBJECT_TYPE":"PAYLOAD","TIME_SYSTEM":"UTC","EPOCH":"2021-11-02T12:19:56.882784","TLE_LINE2":"2 44713  53.0517 116.2561 0001804  84.8818 275.2377 15.06399743109374","MEAN_MOTION_DDOT":"0.0000000000000","MEAN_ANOMALY":"275.2377","MEAN_ELEMENT_THEORY":"SGP4","LAUNCH_DATE":"2019-11-11","SEMIMAJOR_AXIS":"6925.349","ECCENTRICITY":"0.00018040","ELEMENT_SET_NO":"999","PERIAPSIS":"545.965","MEAN_MOTION":"15.06399743","RCS_SIZE":"LARGE","RA_OF_ASC_NODE":"116.2561","REF_FRAME":"TEME","ARG_OF_PERICENTER":"84.8818","DECAY_DATE":null,"APOAPSIS":"548.464","NORAD_CAT_ID":"44713"},{"EPHEMERIS_TYPE":"0","OBJECT_ID":"2019-074B","OBJECT_NAME":"STARLINK-1008","INCLINATION":"53.0544","MEAN_MOTION_DOT":"-0.00000031","COUNTRY_CODE":"US","CLASSIFICATION_TYPE":"U","BSTAR":"0.00001684300000","PERIOD":"95.592","REV_AT_EPOCH":"10942","CENTER_NAME":"EARTH","FILE":"3198350","SITE":"AFETR","GP_ID":"188772290","LAUNCH_DATE":"2019-11-11","MEAN_ELEMENT_THEORY":"SGP4","MEAN_ANOMALY":"269.1208","TLE_LINE2":"2 44714  53.0544 114.8264 0001547  90.9958 269.1208 15.06399064109423","MEAN_MOTION_DDOT":"0.0000000000000","PERIAPSIS":"546.145","ECCENTRICITY":"0.00015470","SEMIMAJOR_AXIS":"6925.351","ELEMENT_SET_NO":"999","TLE_LINE1":"1 44714U 19074B   21306.82442201 -.00000031  00000-0  16843-4 0  9997","EPOCH":"2021-11-02T19:47:10.061664","TIME_SYSTEM":"UTC","OBJECT_TYPE":"PAYLOAD","DECAY_DATE":null,"APOAPSIS":"548.288","NORAD_CAT_ID":"44714","MEAN_MOTION":"15.06399064","REF_FRAME":"TEME","ARG_OF_PERICENTER":"90.9958","RCS_SIZE":"LARGE","RA_OF_ASC_NODE":"114.8264"},{"MEAN_MOTION":"15.06406374","RCS_SIZE":"LARGE","RA_OF_ASC_NODE":"115.1709","REF_FRAME":"TEME","ARG_OF_PERICENTER":"85.4403","DECAY_DATE":null,"APOAPSIS":"548.601","NORAD_CAT_ID":"44715","TLE_LINE1":"1 44715U 19074C   21306.74701899  .00004239  00000-0  30326-3 0  9994","TIME_SYSTEM":"UTC","OBJECT_TYPE":"PAYLOAD","EPOCH":"2021-11-02T17:55:42.440736","MEAN_MOTION_DDOT":"0.0000000000000","TLE_LINE2":"2 44715  53.0527 115.1709 0002031  85.4403 274.6818 15.06406374109405","MEAN_ELEMENT_THEORY":"SGP4","MEAN_ANOMALY":"274.6818","LAUNCH_DATE":"2019-11-11","SEMIMAJOR_AXIS":"6925.329","ELEMENT_SET_NO":"999","ECCENTRICITY":"0.00020310","PERIAPSIS":"545.787","GP_ID":"188772540","FILE":"3198350","CENTER_NAME":"EARTH","REV_AT_EPOCH":"10940","SITE":"AFETR","CLASSIFICATION_TYPE":"U","PERIOD":"95.592","BSTAR":"0.00030326000000","INCLINATION":"53.0527","MEAN_MOTION_DOT":"0.00004239","OBJECT_NAME":"STARLINK-1009","OBJECT_ID":"2019-074C","EPHEMERIS_TYPE":"0","COUNTRY_CODE":"US"},{"GP_ID":"188772792","SITE":"AFETR","FILE":"3198350","CENTER_NAME":"EARTH","REV_AT_EPOCH":"10939","PERIOD":"95.592","BSTAR":"0.00006631800000","CLASSIFICATION_TYPE":"U","COUNTRY_CODE":"US","MEAN_MOTION_DOT":"0.00000706","INCLINATION":"53.0553","EPHEMERIS_TYPE":"0","OBJECT_NAME":"STARLINK-1010","OBJECT_ID":"2019-074D","RA_OF_ASC_NODE":"115.0814","RCS_SIZE":"LARGE","REF_FRAME":"TEME","ARG_OF_PERICENTER":"79.6405","MEAN_MOTION":"15.06400062","APOAPSIS":"548.468","NORAD_CAT_ID":"44716","DECAY_DATE":null,"EPOCH":"2021-11-02T18:22:13.698912","OBJECT_TYPE":"PAYLOAD","TIME_SYSTEM":"UTC","TLE_LINE1":"1 44716U 19074D   21306.76543633  .00000706  00000-0  66318-4 0  9993","ELEMENT_SET_NO":"999","SEMIMAJOR_AXIS":"6925.348","ECCENTRICITY":"0.00018110","PERIAPSIS":"545.959","MEAN_ANOMALY":"280.4788","MEAN_ELEMENT_THEORY":"SGP4","TLE_LINE2":"2 44716  53.0553 115.0814 0001811  79.6405 280.4788 15.06400062109390","MEAN_MOTION_DDOT":"0.0000000000000","LAUNCH_DATE":"2019-11-11"},{"TLE_LINE1":"1 44717U 19074E   21306.63090407 -.00000036  00000-0  16467-4 0  9993","EPOCH":"2021-11-02T15:08:30.111648","TIME_SYSTEM":"UTC","OBJECT_TYPE":"PAYLOAD","LAUNCH_DATE":"2019-11-11","MEAN_ELEMENT_THEORY":"SGP4","MEAN_ANOMALY":"278.7403","TLE_LINE2":"2 44717  53.0529 135.6871 0001759  81.3785 278.7403 15.06397038109119","MEAN_MOTION_DDOT":"0.0000000000000","PERIAPSIS":"546.004","ECCENTRICITY":"0.00017590","SEMIMAJOR_AXIS":"6925.358","ELEMENT_SET_NO":"999","MEAN_MOTION":"15.06397038","ARG_OF_PERICENTER":"81.3785","REF_FRAME":"TEME","RA_OF_ASC_NODE":"135.6871","RCS_SIZE":"LARGE","DECAY_DATE":null,"NORAD_CAT_ID":"44717","APOAPSIS":"548.441","CLASSIFICATION_TYPE":"U","BSTAR":"0.00001646700000","PERIOD":"95.592","EPHEMERIS_TYPE":"0","OBJECT_NAME":"STARLINK-1011","OBJECT_ID":"2019-074E","INCLINATION":"53.0529","MEAN_MOTION_DOT":"-0.00000036","COUNTRY_CODE":"US","GP_ID":"188773542","CENTER_NAME":"EARTH","REV_AT_EPOCH":"10911","FILE":"3198350","SITE":"AFETR"}];
